STARLINK-2567           
1 48276U 21036A   22276.18150018  .00024335  00000+0  16454-2 0  9990
2 48276  53.0543 273.8457 0001644  54.2496 305.8646 15.06435276 80458
STARLINK-2569           
1 48277U 21036B   22276.18287361  .00001094  00000+0  92306-4 0  9992
2 48277  53.0549 238.8411 0001481  94.1080 266.0078 15.06402322 80944
STARLINK-2543           
1 48278U 21036C   22276.22020008  .00001699  00000+0  13288-3 0  9993
2 48278  53.0545 253.7338 0001797  71.6732 288.4452 15.06408783 80737
STARLINK-2580           
1 48279U 21036D   22276.21282023  .00003310  00000+0  24089-3 0  9993
2 48279  53.0525 253.6978 0001597  55.2338 304.8801 15.06413271 80732
STARLINK-2565           
1 48280U 21036E   22275.87465001 -.00001543  00000+0 -84706-4 0  9996
2 48280  53.0571 325.2193 0001409  93.4474 266.6676 15.06391039 79704
STARLINK-2520           
1 48281U 21036F   22276.08657766 -.00000020  00000+0  17571-4 0  9996
2 48281  53.0547 304.2616 0001965  51.0283 309.0881 15.06404964 80018
STARLINK-2558           
1 48282U 21036G   22276.11006772 -.00002023  00000+0 -11689-3 0  9995
2 48282  53.0535 309.1674 0001670  55.7206 304.3941 15.06415589 79954
STARLINK-2516           
1 48283U 21036H   22275.84101064 -.00000555  00000+0 -18359-4 0  9995
2 48283  53.0543 310.3682 0001684  64.5856 295.5307 15.06398888 79332
STARLINK-2564           
1 48284U 21036J   22276.10270801  .00000048  00000+0  22120-4 0  9998
2 48284  53.0564 309.1917 0001529  72.5774 287.5382 15.06397653 79949
STARLINK-2548           
1 48285U 21036K   22275.83268743  .00002313  00000+0  17409-3 0  9990
2 48285  53.0547 310.3981 0001635  58.4203 301.6946 15.06409650 79321
STARLINK-2547           
1 48286U 21036L   22275.63089945  .00002119  00000+0  16107-3 0  9992
2 48286  53.0533 311.3209 0001316  66.9450 293.1678 15.06411745 79296
STARLINK-2566           
1 48287U 21036M   22276.09164503  .00002547  00000+0  18983-3 0  9997
2 48287  53.0540 309.2505 0001711  54.3064 305.8084 15.06402851 79943
STARLINK-2562           
1 48288U 21036N   22276.08702281 -.00000763  00000+0 -32332-4 0  9993
2 48288  53.0549 309.2536 0001733  57.3346 302.7810 15.06401096 79940
STARLINK-2545           
1 48289U 21036P   22275.81890037 -.00000573  00000+0 -19545-4 0  9991
2 48289  53.0566 310.4668 0001789  52.6731 307.4421 15.06398399 79904
STARLINK-2540           
1 48290U 21036Q   22276.14694769  .00006532  00000+0  45700-3 0  9994
2 48290  53.0532 308.9867 0001671  66.3401 293.7763 15.06400403 79959
STARLINK-2555           
1 48291U 21036R   22275.81151349  .00001700  00000+0  13300-3 0  9993
2 48291  53.0543 310.4907 0001693  52.7791 307.3352 15.06401186 79326
STARLINK-2542           
1 48292U 21036S   22276.08798100  .00000459  00000+0  49687-4 0  9994
2 48292  53.0540 309.4341 0001729  55.9895 304.1258 15.06406329 79946
STARLINK-2550           
1 48293U 21036T   22275.80415150 -.00000274  00000+0  48801-6 0  9990
2 48293  53.0539 310.5367 0001506  49.9696 310.1425 15.06392572 79320
STARLINK-2533           
1 48294U 21036U   22275.80046131 -.00000327  00000+0 -30279-5 0  9999
2 48294  53.0558 310.5480 0001725  61.4721 298.6442 15.06395942 79322
STARLINK-2535           
1 48295U 21036V   22275.79678347 -.00001953  00000+0 -11229-3 0  9996
2 48295  53.0548 310.5753 0001529  53.3323 306.7807 15.06395585 79908
STARLINK-2546           
1 48296U 21036W   22275.79309852 -.00000889  00000+0 -40801-4 0  9995
2 48296  53.0534 310.5913 0001349  54.5038 305.6076 15.06386398 79906
STARLINK-2544           
1 48297U 21036X   22275.78940832 -.00001019  00000+0 -49533-4 0  9991
2 48297  53.0554 310.5957 0001894  46.7704 313.3443 15.06396143 79908
STARLINK-2559           
1 48298U 21036Y   22275.52033666 -.00000376  00000+0 -63200-5 0  9995
2 48298  53.0551 311.8143 0001685  49.7536 310.3600 15.06402686 79284
STARLINK-2557           
1 48299U 21036Z   22275.38394845 -.00000249  00000+0  22091-5 0  9990
2 48299  53.0551 312.4104 0001608  61.5968 298.5183 15.06394856 79265
STARLINK-2538           
1 48300U 21036AA  22276.17182760 -.00000678  00000+0 -26648-4 0  9990
2 48300  53.0526 318.8684 0001686  57.0088 303.1063 15.06394040 79829
STARLINK-2537           
1 48301U 21036AB  22276.16814505 -.00001150  00000+0 -58346-4 0  9995
2 48301  53.0549 318.9035 0001547  61.5547 298.5598 15.06397035 79818
STARLINK-2556           
1 48302U 21036AC  22276.09809657  .00004429  00000+0  31600-3 0  9993
2 48302  53.0550 319.2038 0001639  59.8636 300.2516 15.06405868 79803
STARLINK-2530           
1 48303U 21036AD  22275.82809263 -.00002285  00000+0 -13461-3 0  9992
2 48303  53.0556 320.4205 0001767  55.3376 304.7779 15.06387178 79188
STARLINK-2524           
1 48304U 21036AE  22275.82534893 -.00001031  00000+0 -50296-4 0  9993
2 48304  53.0541 320.4341 0001685  56.4349 303.6801 15.06397405 79183
STARLINK-2519           
1 48305U 21036AF  22276.15244337  .00000523  00000+0  53998-4 0  9997
2 48305  53.0538 318.9708 0001452  76.4344 283.6807 15.06401008 79827
STARLINK-2523           
1 48306U 21036AG  22276.14970576 -.00000369  00000+0 -58556-5 0  9994
2 48306  53.0552 318.9816 0001686  54.0847 306.0298 15.06393403 79826
STARLINK-2528           
1 48307U 21036AH  22275.61524418 -.00000878  00000+0 -40085-4 0  9998
2 48307  53.0558 321.3861 0001423  64.2047 295.9089 15.06394828 79157
STARLINK-2532           
1 48308U 21036AJ  22275.41252106 -.00001378  00000+0 -73605-4 0  9999
2 48308  53.0555 322.2898 0001927  40.6474 319.4658 15.06392252 79126
STARLINK-2517           
1 48309U 21036AK  22275.60787349 -.00001493  00000+0 -81356-4 0  9993
2 48309  53.0536 321.4244 0001565  66.0177 294.0976 15.06395407 79151
STARLINK-2536           
1 48310U 21036AL  22275.53784270 -.00000753  00000+0 -31661-4 0  9999
2 48310  53.0552 321.7404 0001677  50.3164 309.7973 15.06394529 79142
STARLINK-2534           
1 48311U 21036AM  22275.53414894 -.00002495  00000+0 -14872-3 0  9991
2 48311  53.0539 321.7381 0001623  70.1457 289.9707 15.06389377 79147
STARLINK-2061           
1 48312U 21036AN  22276.12757394 -.00002777  00000+0 -16748-3 0  9990
2 48312  53.0549 319.0899 0001866  50.1954 309.9200 15.06418419 79873
STARLINK-2541           
1 48313U 21036AP  22275.85851784  .00005602  00000+0  39470-3 0  9993
2 48313  53.0557 320.2871 0000829  51.3105 308.7958 15.06393939 79186
STARLINK-2549           
1 48314U 21036AQ  22276.12021060  .00000004  00000+0  19168-4 0  9995
2 48314  53.0545 319.1241 0001565  61.0091 299.1055 15.06405110 79874
STARLINK-2506           
1 48315U 21036AR  22276.11558062  .00000375  00000+0  44043-4 0  9993
2 48315  53.0549 319.1153 0001666  64.0571 296.0589 15.06407997 79872
STARLINK-2507           
1 48316U 21036AS  22275.98015650  .00009740  00000+0  67200-3 0  9993
2 48316  53.0540 319.7350 0001612  57.9573 302.1573 15.06394327 79855
STARLINK-2513           
1 48317U 21036AT  22275.84375721  .00000211  00000+0  33090-4 0  9992
2 48317  53.0538 320.3484 0001619  58.2998 301.8148 15.06406124 79180
STARLINK-2509           
1 48318U 21036AU  22276.16722521 -.00000991  00000+0 -47651-4 0  9998
2 48318  53.0565 328.9125 0001740  45.8322 314.2810 15.06395240 79736
STARLINK-2512           
1 48319U 21036AV  22275.63181379 -.00001560  00000+0 -85840-4 0  9995
2 48319  53.0574 331.3030 0002023  54.9498 305.1680 15.06390397 79013
STARLINK-2029           
1 48320U 21036AW  22276.15983821  .00005145  00000+0  36395-3 0  9998
2 48320  53.0542 328.9460 0001480  52.3973 307.7151 15.06410594 79737
STARLINK-2457           
1 48321U 21036AX  22275.62538498 -.00002337  00000+0 -13805-3 0  9999
2 48321  53.0547 331.3429 0001731  48.3390 311.7747 15.06392175 79014
STARLINK-2477           
1 48322U 21036AY  22275.62169534  .00001807  00000+0  14021-3 0  9991
2 48322  53.0540 331.3572 0001562  63.6847 296.4303 15.06393026 79019
STARLINK-2515           
1 48323U 21036AZ  22275.68436120 -.00000790  00000+0 -34166-4 0  9991
2 48323  53.0549 331.0666 0001365  57.7748 302.3373 15.06394394 79029
STARLINK-2527           
1 48324U 21036BA  22275.67972832 -.00000419  00000+0 -92571-5 0  9999
2 48324  53.0554 331.0722 0001144  81.4063 278.7056 15.06390989 79017
STARLINK-2495           
1 48325U 21036BB  22275.87603739 -.00001761  00000+0 -99397-4 0  9992
2 48325  53.0550 330.2219 0001543  58.8824 301.2316 15.06390163 79646
STARLINK-2498           
1 48326U 21036BC  22276.13772498  .00000193  00000+0  31827-4 0  9992
2 48326  53.0552 329.0452 0001595  67.6526 292.4632 15.06399208 79683
STARLINK-2502           
1 48327U 21036BD  22275.86865608 -.00000247  00000+0  22984-5 0  9994
2 48327  53.0561 330.2515 0001806  58.4351 301.6814 15.06399194 79642
STARLINK-2504           
1 48328U 21036BE  22275.66497559  .00001058  00000+0  89931-4 0  9993
2 48328  53.0532 331.1602 0001727  60.0450 300.0710 15.06407798 79029
STARLINK-2510           
1 48329U 21036BF  22275.86128718  .00003898  00000+0  28048-3 0  9999
2 48329  53.0540 330.2754 0001777  37.8375 322.2738 15.06391604 79057
STARLINK-2501           
1 48330U 21036BG  22276.18931850 -.00000846  00000+0 -37889-4 0  9992
2 48330  53.0562 328.8084 0001599  59.8408 300.2739 15.06412032 79691
STARLINK-2514           
1 48331U 21036BH  22275.85392353 -.00002308  00000+0 -13609-3 0  9993
2 48331  53.0568 330.3147 0001918  52.7185 307.3978 15.06389008 79054
STARLINK-2511           
1 48332U 21036BJ  22275.85297324 -.00002164  00000+0 -12640-3 0  9990
2 48332  53.0556 330.2997 0001743  50.0224 310.0917 15.06396771 79054
STARLINK-2518           
1 48333U 21036BK  22276.11191060  .00001517  00000+0  12068-3 0  9994
2 48333  53.0566 329.1450 0001848  56.0928 304.0236 15.06405339 79687
STARLINK-2470           
1 48334U 21036BL  22276.17458179 -.00000151  00000+0  87765-5 0  9990
2 48334  53.0553 328.8569 0001302  67.2294 292.8832 15.06404473 79691
STARLINK-2441           
1 48335U 21036BM  22276.17090050  .00000248  00000+0  35582-4 0  9996
2 48335  53.0557 328.8930 0001515  53.7771 306.3358 15.06393683 79698
